{"type": "FeatureCollection", "features": [ {"type": "Feature", "properties": {"norad_id": 58662, "name": "TIANMU-1 21", "group": "weather", "lat": -74.34682639697964, "lon": 128.74739479745327, "alt_km": 474.8411751835265, "timestamp": "2025-12-13T13:34:34.722144+00:00", "meta": {"OBJECT_NAME": "TIANMU-1 21", "OBJECT_ID": "2023-208C", "EPOCH": "2025-12-12T23:47:46.025952", "MEAN_MOTION": 15.31559136, "ECCENTRICITY": 0.0005893, "INCLINATION": 97.4369, "RA_OF_ASC_NODE": 100.3852, "ARG_OF_PERICENTER": 258.9245, "MEAN_ANOMALY": 101.1334, "EPHEMERIS_TYPE": 0, "CLASSIFICATION_TYPE": "U", "NORAD_CAT_ID": 58662, "ELEMENT_SET_NO": 999, "REV_AT_EPOCH": 10903, "BSTAR": 0.00051663797, "MEAN_MOTION_DOT": 0.00015689, "MEAN_MOTION_DDOT": 0}, "tle": {"line1": "1 58662U 23208C   25346.99150493  .00015689  00000+0  51664-3 0  9995", "line2": "2 58662  97.4369 100.3852 0005893 258.9245 101.1334 15.31559136109031"}}, "geometry": {"type": "Point", "coordinates": [128.74739479745327, -74.34682639697964]}}, {"type": "Feature", "properties": {"norad_id": 58663, "name": "TIANMU-1 22", "group": "weather", "lat": -14.317793737398373, "lon": -83.25134715324533, "alt_km": 487.64218682286446, "timestamp": "2025-12-13T13:34:34.722159+00:00", "meta": {"OBJECT_NAME": "TIANMU-1 22", "OBJECT_ID": "2023-208D", "EPOCH": "2025-12-13T00:09:04.866912", "MEAN_MOTION": 15.27611505, "ECCENTRICITY": 0.00027117, "INCLINATION": 97.4377, "RA_OF_ASC_NODE": 98.1015, "ARG_OF_PERICENTER": 285.6039, "MEAN_ANOMALY": 74.4901, "EPHEMERIS_TYPE": 0, "CLASSIFICATION_TYPE": "U", "NORAD_CAT_ID": 58663, "ELEMENT_SET_NO": 999, "REV_AT_EPOCH": 10887, "BSTAR": 0.00047948895, "MEAN_MOTION_DOT": 0.0001288, "MEAN_MOTION_DDOT": 0}, "tle": {"line1": "1 58663U 23208D   25347.00630633  .00012880  00000+0  47949-3 0  9999", "line2": "2 58663  97.4377  98.1015 0002711 285.6039  74.4901 15.27611505108877"}}, "geometry": {"type": "Point", "coordinates": [-83.25134715324533, -14.317793737398373]}}, {"type": "Feature", "properties": {"norad_id": 58700, "name": "TIANMU-1 15", "group": "weather", "lat": -44.23055828474734, "lon": 176.3642066656243, "alt_km": 494.8566916769187, "timestamp": "2025-12-13T13:34:34.722173+00:00", "meta": {"OBJECT_NAME": "TIANMU-1 15", "OBJECT_ID": "2024-004A", "EPOCH": "2025-12-11T12:56:40.540704", "MEAN_MOTION": 15.24670451, "ECCENTRICITY": 0.00052437, "INCLINATION": 97.4631, "RA_OF_ASC_NODE": 167.0136, "ARG_OF_PERICENTER": 303.7498, "MEAN_ANOMALY": 56.324, "EPHEMERIS_TYPE": 0, "CLASSIFICATION_TYPE": "U", "NORAD_CAT_ID": 58700, "ELEMENT_SET_NO": 999, "REV_AT_EPOCH": 10716, "BSTAR": 0.00086402607, "MEAN_MOTION_DOT": 0.00021326, "MEAN_MOTION_DDOT": 0}, "tle": {"line1": "1 58700U 24004A   25345.53935811  .00021326  00000+0  86403-3 0  9991", "line2": "2 58700  97.4631 167.0136 0005243 303.7498  56.3240 15.24670451107164"}}, "geometry": {"type": "Point", "coordinates": [176.3642066656243, -44.23055828474734]}}, {"type": "Feature", "properties": {"norad_id": 58701, "name": "TIANMU-1 16", "group": "weather", "lat": 35.77227074016248, "lon": 163.004860472181, "alt_km": 490.7257956222147, "timestamp": "2025-12-13T13:34:34.722197+00:00", "meta": {"OBJECT_NAME": "TIANMU-1 16", "OBJECT_ID": "2024-004B", "EPOCH": "2025-12-13T00:48:55.992960", "MEAN_MOTION": 15.24439832, "ECCENTRICITY": 0.0004441, "INCLINATION": 97.4571, "RA_OF_ASC_NODE": 167.8909, "ARG_OF_PERICENTER": 295.5854, "MEAN_ANOMALY": 64.4924, "EPHEMERIS_TYPE": 0, "CLASSIFICATION_TYPE": "U", "NORAD_CAT_ID": 58701, "ELEMENT_SET_NO": 999, "REV_AT_EPOCH": 10739, "BSTAR": 0.00039445321, "MEAN_MOTION_DOT": 9.614e-05, "MEAN_MOTION_DDOT": 0}, "tle": {"line1": "1 58701U 24004B   25347.03398140  .00009614  00000+0  39445-3 0  9997", "line2": "2 58701  97.4571 167.8909 0004441 295.5854  64.4924 15.24439832107397"}}, "geometry": {"type": "Point", "coordinates": [163.004860472181, 35.77227074016248]}}, {"type": "Feature", "properties": {"norad_id": 58702, "name": "TIANMU-1 17", "group": "weather", "lat": 58.3464001204866, "lon": 1.102834301140718, "alt_km": 489.234707821598, "timestamp": "2025-12-13T13:34:34.722206+00:00", "meta": {"OBJECT_NAME": "TIANMU-1 17", "OBJECT_ID": "2024-004C", "EPOCH": "2025-12-13T00:26:44.328768", "MEAN_MOTION": 15.24482902, "ECCENTRICITY": 0.00036718, "INCLINATION": 97.4604, "RA_OF_ASC_NODE": 168.2858, "ARG_OF_PERICENTER": 299.1956, "MEAN_ANOMALY": 60.8914, "EPHEMERIS_TYPE": 0, "CLASSIFICATION_TYPE": "U", "NORAD_CAT_ID": 58702, "ELEMENT_SET_NO": 999, "REV_AT_EPOCH": 10738, "BSTAR": 0.00038356317, "MEAN_MOTION_DOT": 9.358e-05, "MEAN_MOTION_DDOT": 0}, "tle": {"line1": "1 58702U 24004C   25347.01856862  .00009358  00000+0  38356-3 0  9991", "line2": "2 58702  97.4604 168.2858 0003671 299.1956  60.8914 15.24482902107384"}}, "geometry": {"type": "Point", "coordinates": [1.102834301140718, 58.3464001204866]}}, {"type": "Feature", "properties": {"norad_id": 58703, "name": "TIANMU-1 18", "group": "weather", "lat": -32.041781139199884, "lon": -15.679597848449692, "alt_km": 498.3372174840151, "timestamp": "2025-12-13T13:34:34.722215+00:00", "meta": {"OBJECT_NAME": "TIANMU-1 18", "OBJECT_ID": "2024-004D", "EPOCH": "2025-12-13T00:02:42.963360", "MEAN_MOTION": 15.24469834, "ECCENTRICITY": 0.00030319, "INCLINATION": 97.4622, "RA_OF_ASC_NODE": 168.4646, "ARG_OF_PERICENTER": 299.5326, "MEAN_ANOMALY": 60.5609, "EPHEMERIS_TYPE": 0, "CLASSIFICATION_TYPE": "U", "NORAD_CAT_ID": 58703, "ELEMENT_SET_NO": 999, "REV_AT_EPOCH": 10738, "BSTAR": 0.00040172409, "MEAN_MOTION_DOT": 9.8e-05, "MEAN_MOTION_DDOT": 0}, "tle": {"line1": "1 58703U 24004D   25347.00188615  .00009800  00000+0  40172-3 0  9996", "line2": "2 58703  97.4622 168.4646 0003031 299.5326  60.5609 15.24469834107384"}}, "geometry": {"type": "Point", "coordinates": [-15.679597848449692, -32.041781139199884]}}, {"type": "Feature", "properties": {"norad_id": 58990, "name": "INSAT-3DS", "group": "weather", "lat": -0.022235413488303206, "lon": 8.231190196034431, "alt_km": 35787.27092414527, "timestamp": "2025-12-13T13:34:34.722226+00:00", "meta": {"OBJECT_NAME": "INSAT-3DS", "OBJECT_ID": "2024-033A", "EPOCH": "2025-12-12T22:25:54.822720", "MEAN_MOTION": 1.00272576, "ECCENTRICITY": 0.00012984, "INCLINATION": 0.0412, "RA_OF_ASC_NODE": 135.3401, "ARG_OF_PERICENTER": 128.3741, "MEAN_ANOMALY": 236.7203, "EPHEMERIS_TYPE": 0, "CLASSIFICATION_TYPE": "U", "NORAD_CAT_ID": 58990, "ELEMENT_SET_NO": 999, "REV_AT_EPOCH": 4520, "BSTAR": 0, "MEAN_MOTION_DOT": -1.43e-06, "MEAN_MOTION_DDOT": 0}, "tle": {"line1": "1 58990U 24033A   25346.93466230 -.00000143  00000+0  00000+0 0  9993", "line2": "2 58990   0.0412 135.3401 0001298 128.3741 236.7203  1.00272576 45207"}}, "geometry": {"type": "Point", "coordinates": [8.231190196034431, -0.022235413488303206]}}, {"type": "Feature", "properties": {"norad_id": 59051, "name": "METEOR-M2 4", "group": "weather", "lat": 79.51761043499677, "lon": -111.15909968130777, "alt_km": 809.6699528464042, "timestamp": "2025-12-13T13:34:34.722236+00:00", "meta": {"OBJECT_NAME": "METEOR-M2 4", "OBJECT_ID": "2024-039A", "EPOCH": "2025-12-12T23:40:36.597216", "MEAN_MOTION": 14.22401341, "ECCENTRICITY": 0.00070253, "INCLINATION": 98.6766, "RA_OF_ASC_NODE": 303.8915, "ARG_OF_PERICENTER": 357.7946, "MEAN_ANOMALY": 2.3199, "EPHEMERIS_TYPE": 0, "CLASSIFICATION_TYPE": "U", "NORAD_CAT_ID": 59051, "ELEMENT_SET_NO": 999, "REV_AT_EPOCH": 9279, "BSTAR": 5.2326921e-05, "MEAN_MOTION_DOT": 7.3e-07, "MEAN_MOTION_DDOT": 0}, "tle": {"line1": "1 59051U 24039A   25346.98653469  .00000073  00000+0  52327-4 0  9990", "line2": "2 59051  98.6766 303.8915 0007025 357.7946   2.3199 14.22401341 92791"}}, "geometry": {"type": "Point", "coordinates": [-111.15909968130777, 79.51761043499677]}}, {"type": "Feature", "properties": {"norad_id": 60133, "name": "GOES 19", "group": "weather", "lat": 0.0013994815982164305, "lon": -149.07213715226004, "alt_km": 35787.70511425228, "timestamp": "2025-12-13T13:34:34.722246+00:00", "meta": {"OBJECT_NAME": "GOES 19", "OBJECT_ID": "2024-119A", "EPOCH": "2025-12-12T21:40:59.127168", "MEAN_MOTION": 1.00270797, "ECCENTRICITY": 0.00012583, "INCLINATION": 0.0176, "RA_OF_ASC_NODE": 158.8033, "ARG_OF_PERICENTER": 156.363, "MEAN_ANOMALY": 16.7348, "EPHEMERIS_TYPE": 0, "CLASSIFICATION_TYPE": "U", "NORAD_CAT_ID": 60133, "ELEMENT_SET_NO": 999, "REV_AT_EPOCH": 509, "BSTAR": 0, "MEAN_MOTION_DOT": -2.36e-06, "MEAN_MOTION_DDOT": 0}, "tle": {"line1": "1 60133U 24119A   25346.90346212 -.00000236  00000+0  00000+0 0  9997", "line2": "2 60133   0.0176 158.8033 0001258 156.3630  16.7348  1.00270797  5093"}}, "geometry": {"type": "Point", "coordinates": [-149.07213715226004, 0.0013994815982164305]}}, {"type": "Feature", "properties": {"norad_id": 65815, "name": "FENGYUN 3H", "group": "weather", "lat": -43.931241403365895, "lon": -64.42080871417593, "alt_km": 832.6295908082093, "timestamp": "2025-12-13T13:34:34.722256+00:00", "meta": {"OBJECT_NAME": "FENGYUN 3H", "OBJECT_ID": "2025-219A", "EPOCH": "2025-12-12T22:33:53.882208", "MEAN_MOTION": 14.19904782, "ECCENTRICITY": 6.132e-05, "INCLINATION": 98.6584, "RA_OF_ASC_NODE": 286.5262, "ARG_OF_PERICENTER": 93.0847, "MEAN_ANOMALY": 267.04, "EPHEMERIS_TYPE": 0, "CLASSIFICATION_TYPE": "U", "NORAD_CAT_ID": 65815, "ELEMENT_SET_NO": 999, "REV_AT_EPOCH": 1095, "BSTAR": 9.7643999e-05, "MEAN_MOTION_DOT": 1.64e-06, "MEAN_MOTION_DDOT": 0}, "tle": {"line1": "1 65815U 25219A   25346.94020697  .00000164  00000+0  97644-4 0  9995", "line2": "2 65815  98.6584 286.5262 0000613  93.0847 267.0400 14.19904782 10958"}}, "geometry": {"type": "Point", "coordinates": [-64.42080871417593, -43.931241403365895]}}]}